IRNSS-1A----------------
1 39199U 13034A   19081.63590910  .00000092  00000-0  00000+0 0  9994
2 39199  29.9588 104.1332 0020403 189.4729 170.3610  1.00278856 21139
IRNSS-1B----------------
1 39635U 14017A   19080.16274032  .00000070  00000-0  00000-0 0  9999
2 39635  28.6720 284.6148 0019299 177.6252 189.7267  1.00274346 18079
IRNSS-1C----------------
1 40269U 14061A   19082.92594265 -.00000186  00000-0  00000-0 0  9991
2 40269   2.0239 214.9926 0018401   9.8781  12.5670  1.00275472 16195
IRNSS-1D----------------
1 40547U 15018A   19082.97405664 -.00000313  00000-0  00000+0 0  9993
2 40547  29.3987 284.6724 0021902 181.5283 177.5689  1.00284826 14745
IRNSS-1E----------------
1 41241U 16003A   19082.97396941 -.00000292  00000-0  00000+0 0  9993
2 41241  29.1117 103.7002 0020194 186.2821 353.5578  1.00268470 11705
IRNSS-1F----------------
1 41384U 16015A   19082.88644331  .00000133  00000-0  00000-0 0  9997
2 41384   2.8758 244.0942 0020747 176.0992 112.4060  1.00270739 11196
IRNSS-1G----------------
1 41469U 16027A   19082.91879730 -.00000361  00000-0  00000-0 0  9995
2 41469   2.9273 246.2331 0005105 172.6928 222.4439  1.00267733 10709
IRNSS-1I----------------
1 43286U 18035A   19083.17792694  .00000096  00000-0  00000+0 0  9990
2 43286  29.1023 117.0926 0020860 190.3724 353.1120  1.00277542  3578
